*******************************************************************************
Ephemeris / WWW_USER Mon Jul 15 19:06:26 2024 Pasadena, USA      / Horizons    
*******************************************************************************
Target body name: (2018 RD5)                      {source: JPL#11}
Center body name: Earth (399)                     {source: DE441}
Center-site name: Gemini South Obs., Cerro Pachon
*******************************************************************************
Start time      : A.D. 2018-Oct-10 22:58:00.0000 UT      
Stop  time      : A.D. 2018-Oct-11 10:01:00.0000 UT      
Step-size       : 1 minutes
*******************************************************************************
Target pole/equ : undefined
Target radii    : undefined                                                    
Center geodetic : 289.2634, -30.2406227, 2.71233  {E-lon(deg),Lat(deg),Alt(km)}
Center cylindric: 289.2634,5517.21435,-3194.81213 {E-lon(deg),Dxy(km),Dz(km)}
Center pole/equ : ITRF93                          {East-longitude positive}
Center radii    : 6378.137, 6378.137, 6356.752 km {Equator_a, b, pole_c}       
Target primary  : Sun
Vis. interferer : MOON (R_eq= 1737.400) km        {source: DE441}
Rel. light bend : Sun                             {source: DE441}
Rel. lght bnd GM: 1.3271E+11 km^3/s^2                                          
Small-body perts: Yes                             {source: SB441-N16}
Atmos refraction: NO (AIRLESS)
RA format       : HMS
Time format     : CAL 
Calendar mode   : Mixed Julian/Gregorian
RTS-only print  : NO       
EOP file        : eop.240715.p241008                                           
EOP coverage    : DATA-BASED 1962-JAN-20 TO 2024-JUL-15. PREDICTS-> 2024-OCT-07
Units conversion: 1 au= 149597870.700 km, c= 299792.458 km/s, 1 day= 86400.0 s 
Table cut-offs 1: Elevation (-90.0deg=NO ),Airmass (>38.000=NO), Daylight (YES)
Table cut-offs 2: Solar elongation (  0.0,180.0=NO ),Local Hour Angle( 0.0=NO )
Table cut-offs 3: RA/DEC angular rate (     0.0=NO )                           
*******************************************************************************
Initial IAU76/J2000 heliocentric ecliptic osculating elements (au, days, deg.):
  EPOCH=  2458378.5 ! 2018-Sep-17.00 (TDB)         Residual RMS= .55339        
   EC= .2891632988519429   QR= 1.009650912138325   TP= 2458360.6433297051      
   OM= 171.0145363394364   W=  163.7983400129293   IN= 8.474307805886117       
  Equivalent ICRF heliocentric cartesian coordinates (au, au/d):
   X= 1.017757009008053E+00  Y=-8.967367621791844E-02  Z=-4.840656937149759E-02
  VX= 3.309922676318766E-03 VY= 1.832358809606965E-02 VZ= 4.854018792897502E-03
Asteroid physical parameters (km, seconds, rotational period in hours):        
   GM= n.a.                RAD= n.a.               ROTPER= n.a.                
   H= 25.9                 G= .150                 B-V= n.a.                   
                           ALBEDO= n.a.            STYP= n.a.                  
*******************************************************************************
 Date__(UT)__HR:MN     R.A._________(ICRF)_________DEC
******************************************************
$$SOE
 2018-Oct-11 05:07     03 11 24.797694 -26 56 38.90184
 2018-Oct-11 05:08     03 11 24.773135 -26 56 38.88721
 2018-Oct-11 05:09     03 11 24.748537 -26 56 38.87200
 2018-Oct-11 05:10     03 11 24.723902 -26 56 38.85621
 2018-Oct-11 05:11     03 11 24.699230 -26 56 38.83984
 2018-Oct-11 05:12     03 11 24.674520 -26 56 38.82289
 2018-Oct-11 05:13     03 11 24.649775 -26 56 38.80536
 2018-Oct-11 05:14     03 11 24.624993 -26 56 38.78724
 2018-Oct-11 05:15     03 11 24.600175 -26 56 38.76853
 2018-Oct-11 05:16     03 11 24.575322 -26 56 38.74924
 2018-Oct-11 05:17     03 11 24.550434 -26 56 38.72936
 2018-Oct-11 05:18     03 11 24.525512 -26 56 38.70889
 2018-Oct-11 05:19     03 11 24.500556 -26 56 38.68784
 2018-Oct-11 05:20     03 11 24.475566 -26 56 38.66619
 2018-Oct-11 05:21     03 11 24.450543 -26 56 38.64396
 2018-Oct-11 05:22     03 11 24.425487 -26 56 38.62113
 2018-Oct-11 05:23     03 11 24.400399 -26 56 38.59771
 2018-Oct-11 05:24     03 11 24.375279 -26 56 38.57370
 2018-Oct-11 05:25     03 11 24.350127 -26 56 38.54909
 2018-Oct-11 05:26     03 11 24.324944 -26 56 38.52389
 2018-Oct-11 05:27     03 11 24.299730 -26 56 38.49809
 2018-Oct-11 05:28     03 11 24.274486 -26 56 38.47170
 2018-Oct-11 05:29     03 11 24.249212 -26 56 38.44471
 2018-Oct-11 05:30     03 11 24.223908 -26 56 38.41713
 2018-Oct-11 05:31     03 11 24.198576 -26 56 38.38894
 2018-Oct-11 05:32     03 11 24.173215 -26 56 38.36016
 2018-Oct-11 05:33     03 11 24.147825 -26 56 38.33078
 2018-Oct-11 05:34     03 11 24.122408 -26 56 38.30080
 2018-Oct-11 05:35     03 11 24.096963 -26 56 38.27021
 2018-Oct-11 05:36     03 11 24.071491 -26 56 38.23903
 2018-Oct-11 05:37     03 11 24.045993 -26 56 38.20724
 2018-Oct-11 05:38     03 11 24.020468 -26 56 38.17485
 2018-Oct-11 05:39     03 11 23.994918 -26 56 38.14186
 2018-Oct-11 05:40     03 11 23.969343 -26 56 38.10826
 2018-Oct-11 05:41     03 11 23.943742 -26 56 38.07406
 2018-Oct-11 05:42     03 11 23.918117 -26 56 38.03925
 2018-Oct-11 05:43     03 11 23.892468 -26 56 38.00384
 2018-Oct-11 05:44     03 11 23.866796 -26 56 37.96782
 2018-Oct-11 05:45     03 11 23.841100 -26 56 37.93119
 2018-Oct-11 05:46     03 11 23.815381 -26 56 37.89395
 2018-Oct-11 05:47     03 11 23.789640 -26 56 37.85611
 2018-Oct-11 05:48     03 11 23.763877 -26 56 37.81766
 2018-Oct-11 05:49     03 11 23.738093 -26 56 37.77860
 2018-Oct-11 05:50     03 11 23.712288 -26 56 37.73893
 2018-Oct-11 05:51     03 11 23.686461 -26 56 37.69865
 2018-Oct-11 05:52     03 11 23.660615 -26 56 37.65776
 2018-Oct-11 05:53     03 11 23.634749 -26 56 37.61626
 2018-Oct-11 05:54     03 11 23.608863 -26 56 37.57415
 2018-Oct-11 05:55     03 11 23.582959 -26 56 37.53142
 2018-Oct-11 05:56     03 11 23.557035 -26 56 37.48808
 2018-Oct-11 05:57     03 11 23.531094 -26 56 37.44413
 2018-Oct-11 05:58     03 11 23.505135 -26 56 37.39957
 2018-Oct-11 05:59     03 11 23.479159 -26 56 37.35439
 2018-Oct-11 06:00     03 11 23.453166 -26 56 37.30860
 2018-Oct-11 06:01     03 11 23.427157 -26 56 37.26220
 2018-Oct-11 06:02     03 11 23.401131 -26 56 37.21518
 2018-Oct-11 06:03     03 11 23.375090 -26 56 37.16754
 2018-Oct-11 06:04     03 11 23.349034 -26 56 37.11929
 2018-Oct-11 06:05     03 11 23.322963 -26 56 37.07042
 2018-Oct-11 06:06     03 11 23.296878 -26 56 37.02094
 2018-Oct-11 06:07     03 11 23.270780 -26 56 36.97084
 2018-Oct-11 06:08     03 11 23.244667 -26 56 36.92013
 2018-Oct-11 06:09     03 11 23.218542 -26 56 36.86879
 2018-Oct-11 06:10     03 11 23.192404 -26 56 36.81684
 2018-Oct-11 06:11     03 11 23.166254 -26 56 36.76427
 2018-Oct-11 06:12     03 11 23.140093 -26 56 36.71109
 2018-Oct-11 06:13     03 11 23.113920 -26 56 36.65728
 2018-Oct-11 06:14     03 11 23.087736 -26 56 36.60286
 2018-Oct-11 06:15     03 11 23.061542 -26 56 36.54782
 2018-Oct-11 06:16     03 11 23.035338 -26 56 36.49216
 2018-Oct-11 06:17     03 11 23.009125 -26 56 36.43589
 2018-Oct-11 06:18     03 11 22.982902 -26 56 36.37899
 2018-Oct-11 06:19     03 11 22.956671 -26 56 36.32147
 2018-Oct-11 06:20     03 11 22.930431 -26 56 36.26334
 2018-Oct-11 06:21     03 11 22.904184 -26 56 36.20458
 2018-Oct-11 06:22     03 11 22.877929 -26 56 36.14520
 2018-Oct-11 06:23     03 11 22.851667 -26 56 36.08521
 2018-Oct-11 06:24     03 11 22.825399 -26 56 36.02459
 2018-Oct-11 06:25     03 11 22.799125 -26 56 35.96336
 2018-Oct-11 06:26     03 11 22.772845 -26 56 35.90150
 2018-Oct-11 06:27     03 11 22.746560 -26 56 35.83903
 2018-Oct-11 06:28     03 11 22.720270 -26 56 35.77593
 2018-Oct-11 06:29     03 11 22.693975 -26 56 35.71222
 2018-Oct-11 06:30     03 11 22.667677 -26 56 35.64788
 2018-Oct-11 06:31     03 11 22.641376 -26 56 35.58292
 2018-Oct-11 06:32     03 11 22.615071 -26 56 35.51734
 2018-Oct-11 06:33     03 11 22.588763 -26 56 35.45115
 2018-Oct-11 06:34     03 11 22.562454 -26 56 35.38433
 2018-Oct-11 06:35     03 11 22.536142 -26 56 35.31689
 2018-Oct-11 06:36  t  03 11 22.509830 -26 56 35.24883
 2018-Oct-11 06:37     03 11 22.483516 -26 56 35.18015
 2018-Oct-11 06:38     03 11 22.457202 -26 56 35.11085
 2018-Oct-11 06:39     03 11 22.430888 -26 56 35.04093
 2018-Oct-11 06:40     03 11 22.404574 -26 56 34.97038
 2018-Oct-11 06:41     03 11 22.378261 -26 56 34.89922
 2018-Oct-11 06:42     03 11 22.351950 -26 56 34.82744
 2018-Oct-11 06:43     03 11 22.325640 -26 56 34.75504
 2018-Oct-11 06:44     03 11 22.299332 -26 56 34.68202
 2018-Oct-11 06:45     03 11 22.273026 -26 56 34.60838
 2018-Oct-11 06:46     03 11 22.246724 -26 56 34.53412
 2018-Oct-11 06:47     03 11 22.220425 -26 56 34.45924
 2018-Oct-11 06:48     03 11 22.194130 -26 56 34.38374
 2018-Oct-11 06:49     03 11 22.167839 -26 56 34.30762
 2018-Oct-11 06:50     03 11 22.141553 -26 56 34.23088
 2018-Oct-11 06:51     03 11 22.115272 -26 56 34.15352
 2018-Oct-11 06:52     03 11 22.088997 -26 56 34.07555
 2018-Oct-11 06:53     03 11 22.062728 -26 56 33.99695
 2018-Oct-11 06:54     03 11 22.036465 -26 56 33.91774
 2018-Oct-11 06:55     03 11 22.010208 -26 56 33.83791
 2018-Oct-11 06:56     03 11 21.983960 -26 56 33.75746
 2018-Oct-11 06:57     03 11 21.957718 -26 56 33.67640
 2018-Oct-11 06:58     03 11 21.931485 -26 56 33.59472
 2018-Oct-11 06:59     03 11 21.905261 -26 56 33.51242
 2018-Oct-11 07:00     03 11 21.879046 -26 56 33.42950
 2018-Oct-11 07:01     03 11 21.852840 -26 56 33.34597
 2018-Oct-11 07:02     03 11 21.826643 -26 56 33.26182
 2018-Oct-11 07:03     03 11 21.800458 -26 56 33.17706
 2018-Oct-11 07:04     03 11 21.774282 -26 56 33.09168
 2018-Oct-11 07:05     03 11 21.748118 -26 56 33.00569
 2018-Oct-11 07:06     03 11 21.721966 -26 56 32.91908
 2018-Oct-11 07:07     03 11 21.695825 -26 56 32.83186
 2018-Oct-11 07:08     03 11 21.669697 -26 56 32.74402
 2018-Oct-11 07:09     03 11 21.643582 -26 56 32.65557
